{"type": "FeatureCollection", "features": [ {"type": "Feature", "properties": {"norad_id": 42741, "name": "EUTELSAT 172B", "group": "eutelsat", "lat": -0.005183493909473877, "lon": -116.50609211303914, "alt_km": 35786.264765728454, "timestamp": "2025-12-08T23:34:03.641235+00:00", "meta": {"OBJECT_NAME": "EUTELSAT 172B", "OBJECT_ID": "2017-029B", "EPOCH": "2025-12-08T14:38:38.663808", "MEAN_MOTION": 1.00269577, "ECCENTRICITY": 2.309e-05, "INCLINATION": 0.0118, "RA_OF_ASC_NODE": 90.8778, "ARG_OF_PERICENTER": 217.0034, "MEAN_ANOMALY": 161.4014, "EPHEMERIS_TYPE": 0, "CLASSIFICATION_TYPE": "U", "NORAD_CAT_ID": 42741, "ELEMENT_SET_NO": 999, "REV_AT_EPOCH": 3182, "BSTAR": 0, "MEAN_MOTION_DOT": -4e-08, "MEAN_MOTION_DDOT": 0}, "tle": {"line1": "1 42741U 17029B   25342.61016972 -.00000004  00000+0  00000+0 0  9998", "line2": "2 42741   0.0118  90.8778 0000230 217.0034 161.4014  1.00269577 31829"}}, "geometry": {"type": "Point", "coordinates": [-116.50609211303914, -0.005183493909473877]}}, {"type": "Feature", "properties": {"norad_id": 44334, "name": "EUTELSAT 7C", "group": "eutelsat", "lat": -0.04867506825172455, "lon": 78.45740187786562, "alt_km": 35800.27310313648, "timestamp": "2025-12-08T23:34:03.641247+00:00", "meta": {"OBJECT_NAME": "EUTELSAT 7C", "OBJECT_ID": "2019-034B", "EPOCH": "2025-12-08T13:37:59.577024", "MEAN_MOTION": 1.00270644, "ECCENTRICITY": 0.00034933, "INCLINATION": 0.0737, "RA_OF_ASC_NODE": 179.6012, "ARG_OF_PERICENTER": 58.7605, "MEAN_ANOMALY": 50.69, "EPHEMERIS_TYPE": 0, "CLASSIFICATION_TYPE": "U", "NORAD_CAT_ID": 44334, "ELEMENT_SET_NO": 999, "REV_AT_EPOCH": 492, "BSTAR": 0, "MEAN_MOTION_DOT": 5e-07, "MEAN_MOTION_DDOT": 0}, "tle": {"line1": "1 44334U 19034B   25342.56805066  .00000050  00000+0  00000+0 0  9990", "line2": "2 44334   0.0737 179.6012 0003493  58.7605  50.6900  1.00270644  4922"}}, "geometry": {"type": "Point", "coordinates": [78.45740187786562, -0.04867506825172455]}}, {"type": "Feature", "properties": {"norad_id": 44624, "name": "EUTELSAT 5 WEST B", "group": "eutelsat", "lat": 0.08616844129064036, "lon": 66.4992086582372, "alt_km": 35801.03108844132, "timestamp": "2025-12-08T23:34:03.641258+00:00", "meta": {"OBJECT_NAME": "EUTELSAT 5 WEST B", "OBJECT_ID": "2019-067A", "EPOCH": "2025-12-08T08:26:36.898080", "MEAN_MOTION": 1.00270867, "ECCENTRICITY": 0.00035481, "INCLINATION": 0.0651, "RA_OF_ASC_NODE": 339.6296, "ARG_OF_PERICENTER": 278.5186, "MEAN_ANOMALY": 300.8663, "EPHEMERIS_TYPE": 0, "CLASSIFICATION_TYPE": "U", "NORAD_CAT_ID": 44624, "ELEMENT_SET_NO": 999, "REV_AT_EPOCH": 2252, "BSTAR": 0, "MEAN_MOTION_DOT": -4e-07, "MEAN_MOTION_DDOT": 0}, "tle": {"line1": "1 44624U 19067A   25342.35181595 -.00000040  00000+0  00000+0 0  9999", "line2": "2 44624   0.0651 339.6296 0003548 278.5186 300.8663  1.00270867 22527"}}, "geometry": {"type": "Point", "coordinates": [66.4992086582372, 0.08616844129064036]}}, {"type": "Feature", "properties": {"norad_id": 45027, "name": "EUTELSAT KONNECT", "group": "eutelsat", "lat": 0.0009960422240758219, "lon": 78.68848816636364, "alt_km": 35793.07785987265, "timestamp": "2025-12-08T23:34:03.641270+00:00", "meta": {"OBJECT_NAME": "EUTELSAT KONNECT", "OBJECT_ID": "2020-005B", "EPOCH": "2025-12-08T13:38:07.066176", "MEAN_MOTION": 1.0027168, "ECCENTRICITY": 0.00016551, "INCLINATION": 0.0713, "RA_OF_ASC_NODE": 98.019, "ARG_OF_PERICENTER": 164.3059, "MEAN_ANOMALY": 26.9727, "EPHEMERIS_TYPE": 0, "CLASSIFICATION_TYPE": "U", "NORAD_CAT_ID": 45027, "ELEMENT_SET_NO": 999, "REV_AT_EPOCH": 2242, "BSTAR": 0, "MEAN_MOTION_DOT": 5.2e-07, "MEAN_MOTION_DDOT": 0}, "tle": {"line1": "1 45027U 20005B   25342.56813734  .00000052  00000+0  00000+0 0  9993", "line2": "2 45027   0.0713  98.0190 0001655 164.3059  26.9727  1.00271680 22421"}}, "geometry": {"type": "Point", "coordinates": [78.68848816636364, 0.0009960422240758219]}}, {"type": "Feature", "properties": {"norad_id": 49056, "name": "EUTELSAT QUANTUM", "group": "eutelsat", "lat": 0.04026985611387384, "lon": 119.17162156492047, "alt_km": 35799.618652826764, "timestamp": "2025-12-08T23:34:03.641281+00:00", "meta": {"OBJECT_NAME": "EUTELSAT QUANTUM", "OBJECT_ID": "2021-069B", "EPOCH": "2025-12-08T10:24:25.614720", "MEAN_MOTION": 1.00271583, "ECCENTRICITY": 0.00036828, "INCLINATION": 0.0323, "RA_OF_ASC_NODE": 53.6769, "ARG_OF_PERICENTER": 215.93, "MEAN_ANOMALY": 11.6408, "EPHEMERIS_TYPE": 0, "CLASSIFICATION_TYPE": "U", "NORAD_CAT_ID": 49056, "ELEMENT_SET_NO": 999, "REV_AT_EPOCH": 1601, "BSTAR": 0, "MEAN_MOTION_DOT": 1.28e-06, "MEAN_MOTION_DDOT": 0}, "tle": {"line1": "1 49056U 21069B   25342.43362980  .00000128  00000+0  00000+0 0  9992", "line2": "2 49056   0.0323  53.6769 0003682 215.9300  11.6408  1.00271583 16014"}}, "geometry": {"type": "Point", "coordinates": [119.17162156492047, 0.04026985611387384]}}, {"type": "Feature", "properties": {"norad_id": 53765, "name": "EUTELSAT KONNECT VHTS", "group": "eutelsat", "lat": -0.0043044050496875005, "lon": 74.19026028814504, "alt_km": 35797.18538117823, "timestamp": "2025-12-08T23:34:03.641293+00:00", "meta": {"OBJECT_NAME": "EUTELSAT KONNECT VHTS", "OBJECT_ID": "2022-110A", "EPOCH": "2025-12-08T13:36:59.673312", "MEAN_MOTION": 1.00270451, "ECCENTRICITY": 0.00026459, "INCLINATION": 0.0621, "RA_OF_ASC_NODE": 103.7945, "ARG_OF_PERICENTER": 134.1081, "MEAN_ANOMALY": 46.6267, "EPHEMERIS_TYPE": 0, "CLASSIFICATION_TYPE": "U", "NORAD_CAT_ID": 53765, "ELEMENT_SET_NO": 999, "REV_AT_EPOCH": 491, "BSTAR": 0, "MEAN_MOTION_DOT": 1.9e-07, "MEAN_MOTION_DDOT": 0}, "tle": {"line1": "1 53765U 22110A   25342.56735733  .00000019  00000+0  00000+0 0  9995", "line2": "2 53765   0.0621 103.7945 0002645 134.1081  46.6267  1.00270451  4916"}}, "geometry": {"type": "Point", "coordinates": [74.19026028814504, -0.0043044050496875005]}}, {"type": "Feature", "properties": {"norad_id": 54048, "name": "EUTELSAT HOTBIRD 13F", "group": "eutelsat", "lat": 0.03973517005861763, "lon": 84.52983286483571, "alt_km": 35786.2984688669, "timestamp": "2025-12-08T23:34:03.641305+00:00", "meta": {"OBJECT_NAME": "EUTELSAT HOTBIRD 13F", "OBJECT_ID": "2022-134A", "EPOCH": "2025-12-08T13:39:59.386176", "MEAN_MOTION": 1.00271257, "ECCENTRICITY": 0.00020269, "INCLINATION": 0.0488, "RA_OF_ASC_NODE": 292.1211, "ARG_OF_PERICENTER": 61.5971, "MEAN_ANOMALY": 301.8689, "EPHEMERIS_TYPE": 0, "CLASSIFICATION_TYPE": "U", "NORAD_CAT_ID": 54048, "ELEMENT_SET_NO": 999, "REV_AT_EPOCH": 1146, "BSTAR": 0, "MEAN_MOTION_DOT": 8.9e-07, "MEAN_MOTION_DDOT": 0}, "tle": {"line1": "1 54048U 22134A   25342.56943734  .00000089  00000+0  00000+0 0  9995", "line2": "2 54048   0.0488 292.1211 0002026  61.5971 301.8689  1.00271257 11462"}}, "geometry": {"type": "Point", "coordinates": [84.52983286483571, 0.03973517005861763]}}, {"type": "Feature", "properties": {"norad_id": 54225, "name": "EUTELSAT HOTBIRD 13G", "group": "eutelsat", "lat": 0.0012199200949362006, "lon": 84.46292990828998, "alt_km": 35788.11087423077, "timestamp": "2025-12-08T23:34:03.641316+00:00", "meta": {"OBJECT_NAME": "EUTELSAT HOTBIRD 13G", "OBJECT_ID": "2022-146A", "EPOCH": "2025-12-08T13:39:59.386176", "MEAN_MOTION": 1.00270387, "ECCENTRICITY": 0.00019057, "INCLINATION": 0.0489, "RA_OF_ASC_NODE": 235.9638, "ARG_OF_PERICENTER": 310.4323, "MEAN_ANOMALY": 109.1697, "EPHEMERIS_TYPE": 0, "CLASSIFICATION_TYPE": "U", "NORAD_CAT_ID": 54225, "ELEMENT_SET_NO": 999, "REV_AT_EPOCH": 555, "BSTAR": 0, "MEAN_MOTION_DOT": 8.9e-07, "MEAN_MOTION_DDOT": 0}, "tle": {"line1": "1 54225U 22146A   25342.56943734  .00000089  00000+0  00000+0 0  9995", "line2": "2 54225   0.0489 235.9638 0001905 310.4323 109.1697  1.00270387  5554"}}, "geometry": {"type": "Point", "coordinates": [84.46292990828998, 0.0012199200949362006]}}, {"type": "Feature", "properties": {"norad_id": 54259, "name": "EUTELSAT 10B", "group": "eutelsat", "lat": 0.00512324617958366, "lon": 81.45511583324857, "alt_km": 35787.35598114903, "timestamp": "2025-12-08T23:34:03.641328+00:00", "meta": {"OBJECT_NAME": "EUTELSAT 10B", "OBJECT_ID": "2022-157A", "EPOCH": "2025-12-08T13:39:06.969888", "MEAN_MOTION": 1.00268518, "ECCENTRICITY": 8.808e-05, "INCLINATION": 0.0623, "RA_OF_ASC_NODE": 100.1537, "ARG_OF_PERICENTER": 77.3125, "MEAN_ANOMALY": 114.8642, "EPHEMERIS_TYPE": 0, "CLASSIFICATION_TYPE": "U", "NORAD_CAT_ID": 54259, "ELEMENT_SET_NO": 999, "REV_AT_EPOCH": 1111, "BSTAR": 0, "MEAN_MOTION_DOT": 7e-07, "MEAN_MOTION_DDOT": 0}, "tle": {"line1": "1 54259U 22157A   25342.56883067  .00000070  00000+0  00000+0 0  9996", "line2": "2 54259   0.0623 100.1537 0000880  77.3125 114.8642  1.00268518 11117"}}, "geometry": {"type": "Point", "coordinates": [81.45511583324857, 0.00512324617958366]}}, {"type": "Feature", "properties": {"norad_id": 59346, "name": "EUTELSAT 36D", "group": "eutelsat", "lat": 0.026919277389621268, "lon": 107.35804897784588, "alt_km": 35788.382726815675, "timestamp": "2025-12-08T23:34:03.641340+00:00", "meta": {"OBJECT_NAME": "EUTELSAT 36D", "OBJECT_ID": "2024-059A", "EPOCH": "2025-12-08T13:46:36.253344", "MEAN_MOTION": 1.00268699, "ECCENTRICITY": 3.58e-05, "INCLINATION": 0.0187, "RA_OF_ASC_NODE": 325.0021, "ARG_OF_PERICENTER": 331.7781, "MEAN_ANOMALY": 23.3194, "EPHEMERIS_TYPE": 0, "CLASSIFICATION_TYPE": "U", "NORAD_CAT_ID": 59346, "ELEMENT_SET_NO": 999, "REV_AT_EPOCH": 623, "BSTAR": 0, "MEAN_MOTION_DOT": 1.58e-06, "MEAN_MOTION_DDOT": 0}, "tle": {"line1": "1 59346U 24059A   25342.57403071  .00000158  00000+0  00000+0 0  9992", "line2": "2 59346   0.0187 325.0021 0000358 331.7781  23.3194  1.00268699  6238"}}, "geometry": {"type": "Point", "coordinates": [107.35804897784588, 0.026919277389621268]}}]}